NORAD_CAT_ID,OBJECT_NAME,OBJECT_TYPE,EPOCH,MEAN_MOTION,ECCENTRICITY,INCLINATION,RA_OF_ASC_NODE,ARG_OF_PERICENTER,MEAN_ANOMALY,BSTAR,MEAN_MOTION_DOT,MEAN_MOTION_DDOT,TLE_LINE0,TLE_LINE1,TLE_LINE2,SEMIMAJOR_AXIS,PERIOD,APOGEE,PERIGEE,DECAYED
52093.0,STARLINK-3673,PAYLOAD,2023-01-01 19:53:29,15.08809711,0.0002465,53.2152,269.4149,34.1304,325.9846,-0.00047061,-7.764e-05,0.0,0 STARLINK-3673,1 52093U 22029F   23001.82881798 -.00007764  00000-0 -47061-3 0  9998,2 52093  53.2152 269.4149 0002465  34.1304 325.9846 15.08809711 45103,6917.973000000001,95.439,541.543,538.133,0.0
52093.0,STARLINK-3673,PAYLOAD,2023-01-02 10:11:58,15.08824828,0.000231,53.2158,266.73900000000003,29.9587,330.1537,-5.917e-05,-1.23e-05,0.0,0 STARLINK-3673,1 52093U 22029F   23002.42498150 -.00001230  00000-0 -59170-4 0  9998,2 52093  53.2158 266.7390 0002310  29.9587 330.1537 15.08824828 45191,6917.927,95.439,541.39,538.194,0.0
52093.0,STARLINK-3673,PAYLOAD,2023-01-02 13:22:44,15.0882506,0.0002278999999999,53.2161,266.144,28.0904,332.0211,-1.0755e-05,-4.59e-06,0.0,0 STARLINK-3673,1 52093U 22029F   23002.55746267 -.00000459  00000-0 -10755-4 0  9995,2 52093  53.2161 266.1440 0002279  28.0904 332.0211 15.08825060 45214,6917.926,95.438,541.368,538.214,0.0
52093.0,STARLINK-3673,PAYLOAD,2023-01-02 19:44:17,15.08830341,0.0002338,53.2162,264.9549,29.5674,330.545,0.00049292,7.563e-05,0.0,0 STARLINK-3673,1 52093U 22029F   23002.82242753  .00007563  00000-0  49292-3 0  9994,2 52093  53.2162 264.9549 0002338  29.5674 330.5450 15.08830341 45257,6917.91,95.438,541.3919999999998,538.158,0.0
52093.0,STARLINK-3673,PAYLOAD,2023-01-03 10:02:45,15.08850152,0.0002309,53.2159,262.2786,30.689,329.4237,0.00072148,0.00011216,0.0,0 STARLINK-3673,1 52093U 22029F   23003.41858674  .00011216  00000-0  72148-3 0  9991,2 52093  53.2159 262.2786 0002309  30.6890 329.4237 15.08850152 45340,6917.849,95.437,541.312,538.117,0.0
52093.0,STARLINK-3673,PAYLOAD,2023-01-03 11:38:09,15.08849662,0.000241,53.2157,261.9818,30.1431,329.9699,0.00062073,9.607e-05,0.0,0 STARLINK-3673,1 52093U 22029F   23003.48482676  .00009607  00000-0  62073-3 0  9990,2 52093  53.2157 261.9818 0002410  30.1431 329.9699 15.08849662 45351,6917.851,95.437,541.383,538.049,0.0
52093.0,STARLINK-3673,PAYLOAD,2023-01-04 03:32:00,15.088340300000002,0.0002379,53.2155,259.0077,32.5066,327.6073,8.0082e-05,9.86e-06,0.0,0 STARLINK-3673,1 52093U 22029F   23004.14723346  .00000986  00000-0  80082-4 0  9998,2 52093  53.2155 259.0077 0002379  32.5066 327.6073 15.08834030 45453,6917.899,95.438,541.409,538.118,0.0
52093.0,STARLINK-3673,PAYLOAD,2023-01-05 01:47:24,15.08864072,0.000245,53.215,254.845,34.2538,325.8612,0.00083276,0.00012999,0.0,0 STARLINK-3673,1 52093U 22029F   23005.07458459  .00012999  00000-0  83276-3 0  9995,2 52093  53.2150 254.8450 0002450  34.2538 325.8612 15.08864072 45592,6917.807,95.436,541.367,537.977,0.0
52093.0,STARLINK-3673,PAYLOAD,2023-01-05 09:44:19,15.08868274,0.0002536,53.2149,253.3582,35.1121,325.0038,0.00069558,0.00010808,0.0,0 STARLINK-3673,1 52093U 22029F   23005.40577926  .00010808  00000-0  69558-3 0  9997,2 52093  53.2149 253.3582 0002536  35.1121 325.0038 15.08868274 45641,6917.794,95.436,541.413,537.905,0.0
52093.0,STARLINK-3673,PAYLOAD,2023-01-06 09:35:06,15.08833528,0.0002873,53.2152,248.8983,36.4392,323.6795,-0.00025741,-4.383e-05,0.0,0 STARLINK-3673,1 52093U 22029F   23006.39937752 -.00004383  00000-0 -25741-3 0  9992,2 52093  53.2152 248.8983 0002873  36.4392 323.6795 15.08833528 45791,6917.9,95.438,541.753,537.778,0.0
52093.0,STARLINK-3673,PAYLOAD,2023-01-07 01:28:58,15.08838052,0.000263,53.2147,245.923,39.8402,320.2783,0.00080617,0.00012565,0.0,0 STARLINK-3673,1 52093U 22029F   23007.06178435  .00012565  00000-0  80617-3 0  9994,2 52093  53.2147 245.9230 0002630  39.8402 320.2783 15.08838052 45896,6917.886,95.438,541.571,537.932,0.0
52093.0,STARLINK-3673,PAYLOAD,2023-01-07 09:25:53,15.08846437,0.0002442,53.2154,244.4355,37.8118,322.3045,0.00090386,0.00014129,0.0,0 STARLINK-3673,1 52093U 22029F   23007.39298305  .00014129  00000-0  90386-3 0  9991,2 52093  53.2154 244.4355 0002442  37.8118 322.3045 15.08846437 45945,6917.861,95.437,541.415,538.036,0.0
52093.0,STARLINK-3673,PAYLOAD,2023-01-07 22:08:59,15.0884449,0.0003539,53.2121,242.0563,62.1998,297.9353,0.00064951,0.00010066,0.0,0 STARLINK-3673,1 52093U 22029F   23007.92290985  .00010066  00000-0  64951-3 0  9991,2 52093  53.2121 242.0563 0003539  62.1998 297.9353 15.08844490 46025,6917.866999999998,95.437,542.18,537.283,0.0
52093.0,STARLINK-3673,PAYLOAD,2023-01-08 01:19:45,15.0882958,0.0002526,53.2142,241.4642,30.7342,329.3797,0.00015275,2.143e-05,0.0,0 STARLINK-3673,1 52093U 22029F   23008.05539093  .00002143  00000-0  15275-3 0  9994,2 52093  53.2142 241.4642 0002526  30.7342 329.3797 15.08829580 46045,6917.911999999998,95.438,541.525,538.03,0.0
52093.0,STARLINK-3673,PAYLOAD,2023-01-08 21:59:47,15.08840772,0.000249,53.2141,237.5979,32.5587,327.5558,0.00074422,0.00011576,0.0,0 STARLINK-3673,1 52093U 22029F   23008.91651689  .00011576  00000-0  74422-3 0  9994,2 52093  53.2141 237.5979 0002490  32.5587 327.5558 15.08840772 46179,6917.8780000000015,95.438,541.466,538.02,0.0
52093.0,STARLINK-3673,PAYLOAD,2023-01-09 07:32:05,15.08854288,0.0002534,53.2151,235.8131,33.1172,326.9978,0.00082883,0.00012933,0.0,0 STARLINK-3673,1 52093U 22029F   23009.31395344  .00012933  00000-0  82883-3 0  9990,2 52093  53.2151 235.8131 0002534  33.1172 326.9978 15.08854288 46230,6917.837,95.437,541.455,537.9490000000002,0.0
52093.0,STARLINK-3673,PAYLOAD,2023-01-09 15:29:01,15.08852758,0.0002697,53.2146,234.3274,44.222,315.8988,0.00053754,8.28e-05,0.0,0 STARLINK-3673,1 52093U 22029F   23009.64515295  .00008280  00000-0  53754-3 0  9990,2 52093  53.2146 234.3274 0002697  44.2220 315.8988 15.08852758 46286,6917.840999999999,95.437,541.572,537.841,0.0
52093.0,STARLINK-3673,PAYLOAD,2023-01-09 21:50:33,15.08846449,0.0002597,53.216,233.1371,37.9261,322.1914,0.00025327,3.746e-05,0.0,0 STARLINK-3673,1 52093U 22029F   23009.91011308  .00003746  00000-0  25327-3 0  9993,2 52093  53.2160 233.1371 0002597  37.9261 322.1914 15.08846449 46325,6917.861,95.437,541.5219999999998,537.929,0.0
52093.0,STARLINK-3673,PAYLOAD,2023-01-10 01:01:19,15.08847617,0.0002616,53.216,232.5424,38.8977,321.2203,0.00023756,3.495e-05,0.0,0 STARLINK-3673,1 52093U 22029F   23010.04259238  .00003495  00000-0  23756-3 0  9990,2 52093  53.2160 232.5424 0002616  38.8977 321.2203 15.08847617 46344,6917.857,95.437,541.5319999999998,537.9119999999998,0.0
52093.0,STARLINK-3673,PAYLOAD,2023-01-11 07:13:39,15.08840697,0.0002498,53.2114,226.8915,35.0765,325.0391,0.00015097,2.115e-05,0.0,0 STARLINK-3673,1 52093U 22029F   23011.30115363  .00002115  00000-0  15097-3 0  9997,2 52093  53.2114 226.8915 0002498  35.0765 325.0391 15.08840697 46538,6917.8780000000015,95.438,541.471,538.015,0.0
52093.0,STARLINK-3673,PAYLOAD,2023-01-11 13:35:12,15.08836209,0.0002616,53.2142,225.7032,44.3087,315.8114,-2.5127e-05,-6.88e-06,0.0,0 STARLINK-3673,1 52093U 22029F   23011.56611641 -.00000688  00000-0 -25127-4 0  9996,2 52093  53.2142 225.7032 0002616  44.3087 315.8114 15.08836209 46577,6917.892,95.438,541.567,537.947,0.0
52093.0,STARLINK-3673,PAYLOAD,2023-01-12 00:42:54,15.08831884,0.0002634999999999,53.2131,223.6209,41.7517,318.3675,-2.2253e-05,-6.43e-06,0.0,0 STARLINK-3673,1 52093U 22029F   23012.02980170 -.00000643  00000-0 -22253-4 0  9992,2 52093  53.2131 223.6209 0002635  41.7517 318.3675 15.08831884 46640,6917.905,95.438,541.5930000000002,537.947,0.0
52093.0,STARLINK-3673,PAYLOAD,2023-01-12 21:22:55,15.08833862,0.0002481,53.2138,219.7551,41.4201,318.6979,0.00017961,2.571e-05,0.0,0 STARLINK-3673,1 52093U 22029F   23012.89092395  .00002571  00000-0  17961-3 0  9999,2 52093  53.2138 219.7551 0002481  41.4201 318.6979 15.08833862 46771,6917.899,95.438,541.48,538.048,0.0
52093.0,STARLINK-3673,PAYLOAD,2023-01-13 02:09:05,15.088386300000002,0.0002499,53.2143,218.8629,41.8092,318.309,0.00024495,3.612e-05,0.0,0 STARLINK-3673,1 52093U 22029F   23013.08964285  .00003612  00000-0  24495-3 0  9994,2 52093  53.2143 218.8629 0002499  41.8092 318.3090 15.08838630 46807,6917.885,95.438,541.4780000000002,538.021,0.0
52093.0,STARLINK-3673,PAYLOAD,2023-01-13 13:16:47,15.08836953,0.0002453,53.2145,216.781,42.0336,318.0844,0.00029307,4.379e-05,0.0,0 STARLINK-3673,1 52093U 22029F   23013.55332602  .00004379  00000-0  29307-3 0  9996,2 52093  53.2145 216.7810 0002453  42.0336 318.0844 15.08836953 46879,6917.89,95.438,541.452,538.058,0.0
52093.0,STARLINK-3673,PAYLOAD,2023-01-13 21:13:42,15.08845535,0.0002461999999999,53.2144,215.2942,42.4638,317.6544,0.0003006,4.5e-05,0.0,0 STARLINK-3673,1 52093U 22029F   23013.88452304  .00004500  00000-0  30060-3 0  9998,2 52093  53.2144 215.2942 0002462  42.4638 317.6544 15.08845535 46921,6917.863,95.437,541.432,538.025,0.0
52093.0,STARLINK-3673,PAYLOAD,2023-01-14 09:56:48,15.08837761,0.0002356999999999,53.2145,212.9156,42.6628,317.4547,6.7165e-05,7.81e-06,0.0,0 STARLINK-3673,1 52093U 22029F   23014.41444569  .00000781  00000-0  67165-4 0  9996,2 52093  53.2145 212.9156 0002357  42.6628 317.4547 15.08837761 47000,6917.887,95.438,541.383,538.122,0.0
52093.0,STARLINK-3673,PAYLOAD,2023-01-15 11:22:58,15.08836261,0.000234,53.2153,208.1571,48.4319,311.6873,2.6092e-05,1.27e-06,0.0,0 STARLINK-3673,1 52093U 22029F   23015.47428724  .00000127  00000-0  26092-4 0  9996,2 52093  53.2153 208.1571 0002340  48.4319 311.6873 15.08836261 47169,6917.892,95.438,541.376,538.138,0.0
52093.0,STARLINK-3673,PAYLOAD,2023-01-15 12:58:21,15.08837026,0.0002423999999999,53.2153,207.8598,46.603,313.5164,4.7904e-05,4.74e-06,0.0,0 STARLINK-3673,1 52093U 22029F   23015.54052656  .00000474  00000-0  47904-4 0  9991,2 52093  53.2153 207.8598 0002424  46.6030 313.5164 15.08837026 47172,6917.889,95.438,541.431,538.078,0.0
